Code,Name,Primary Role Name,Postcode,Is Operated By - Code,latitude,longitude,msoa
RTFDL,Ashington Hospital,NHS TRUST SITE,NE630RZ,RTF,55.181521,-1.56912,E02005735
RX3AT,Auckland Park Hospital,NHS TRUST SITE,DL146AE,RX3,54.654838,-1.680756,E02004353
RX458,Bensham Hospital,NHS TRUST SITE,NE84YL,RX4,54.944957,-1.614973,E02001688
RTRBA,Bishop Auckland General Hospital,NHS TRUST SITE,DL146AD,RTR,54.655848,-1.678547,E02004353
RTF13,Blyth Community Hospital,NHS TRUST SITE,NE241DX,RTF,55.127873,-1.514936,E02005710
RTR27,Carter Bequest Primary Care Hospital,NHS TRUST SITE,TS55NH,RTR,54.554625,-1.249261,E02002504
RX464,Cherry Knowle Hospital,NHS TRUST SITE,SR20NB,RX4,54.863934,-1.36932,E02001818
RTF2D,Cobalt Hospital,NHS TRUST SITE,NE270BY,RTF,55.024056,-1.510464,E02001748
RXPDA,Darlington Memorial Hospital,NHS TRUST SITE,DL36HX,RXP,54.530374,-1.563733,E02007058
A3K2A,Dental Hospital,NHS TRUST SITE,NE24AZ,RTD,54.981501,-1.622718,E02007099
RX460,Dryden Road Day Hospital,NHS TRUST SITE,NE95BY,RX4,54.947852,-1.596133,E02006842
RR7ER,Dunston Hill Hospital,NHS TRUST SITE,NE119QT,RR7,54.946392,-1.659468,E02001694
RXPDC,Durham Community Hospital,NHS TRUST SITE,DH15AJ,RXP,54.790739,-1.592412,E02004309
RX3LR,East Cleveland Hospital,NHS TRUST SITE,TS122FF,RX3,54.565266,-0.936357,E02002524
RX4K3,Grange Park Clinic Monkmouth Hospital Sunderland Locality,NHS TRUST SITE,SR51NB,RX4,54.924547,-1.386785,E02001795
RTFDU,Haltwhistle War Memorial Hospital,NHS TRUST SITE,NE499AJ,RTF,54.970106,-2.462935,E02005728
RX471,Hexham General Hospital,NHS TRUST SITE,NE461QJ,RX4,54.970372,-2.095702,E02005730
RXP63,Hundens Lane Day Hospital,NHS TRUST SITE,DL11JE,RXP,54.524867,-1.537572,E02002567
RX3CL,Lanchester Road Hospital,NHS TRUST SITE,DH15RD,RX3,54.800429,-1.612241,E02004310
RX450,Monkton Hall Hospital,NHS TRUST SITE,NE325NN,RX4,54.966623,-1.501276,E02001782
RX474,Morpeth Cottage Hospital,NHS TRUST SITE,NE612BT,RX4,55.158354,-1.691879,E02005724
RXP35,New Richardson Hospital,NHS TRUST SITE,DL128HT,RXP,54.545708,-1.916153,E02007022
RX4E6,Newcastle General Hospital,NHS TRUST SITE,NE46BE,RX4,54.976238,-1.644546,E02001729
RTD13,Newcastle Hospitals @ Cramlington,NHS TRUST SITE,NE236UT,RTD,55.085202,-1.590145,E02005715
W1J5B,Newcastle Hospitals @ Metro Centre,NHS TRUST SITE,NE119YR,RTD,54.956483,-1.668908,E02001690
RTDHN,Nhs Nightingale Hospital North East,NHS TRUST SITE,NE360BB,RTD,54.929108,-1.480686,E02001797
RX4A6,North Tyneside General Hospital,NHS TRUST SITE,NE298NH,RX4,55.025241,-1.46734,E02001750
G7Y0P,"Northgate Hospital, Cntw Foundation Trust",NHS TRUST SITE,NE613BP,RTF,55.184911,-1.711886,E02005722
RTF86,Northumbria Specialist Emergency Care Hospital,NHS TRUST SITE,NE236NZ,RTF,55.074089,-1.569492,E02005718
RTDAM,Nuffield Hospital Newcastle Upon Tyne,NHS TRUST SITE,NE21JP,RTD,54.986613,-1.605293,E02001724
RTR64,Nuffield Tees Hospital,NHS TRUST SITE,TS201PX,RTR,54.593996,-1.331957,E02002540
RX449,Palmer Community Hospital,NHS TRUST SITE,NE323UX,RX4,54.980657,-1.491977,E02001774
RVWSX,Peterlee Community Hospital,NHS TRUST SITE,SR85UQ,RVW,54.754067,-1.333039,E02004329
RX3GH,Prescribing Guisborough Pc Hospital Older Persons Service,NHS TRUST SITE,TS146HZ,RX3,54.538835,-1.052162,E02002532
RX3HQ,Prescribing St. Lukes Hospital Rehab,NHS TRUST SITE,TS43AF,RX3,54.555732,-1.217681,E02002506
R0B1A,Primrose Hill Hospital,NHS TRUST SITE,NE325HA,R0B,54.967655,-1.485721,E02001784
RTFDE,Priory Day Hospital,NHS TRUST SITE,NE290SF,RTF,55.011193,-1.456596,E02001759
RX41G,Prudhoe Hospital Team C,NHS TRUST SITE,NE425PB,RX4,54.94983,-1.841328,E02005731
A9Z7S,Qe Surgery At Freeman Hospital,NHS TRUST SITE,NE77DN,RR7,55.002783,-1.593392,E02001714
RR7EN,Queen Elizabeth Hospital,NHS TRUST SITE,NE96SX,RR7,54.93938,-1.580781,E02001697
RTR18,Redcar Primary Care Hospital,NHS TRUST SITE,TS104NW,RTR,54.600591,-1.069722,E02002519
RX35N,Richardson Hospital,NHS TRUST SITE,DL128ET,RX3,54.546607,-1.917558,E02007022
RTFEF,Rothbury Community Hospital,NHS TRUST SITE,NE657RW,RTF,55.306771,-1.913915,E02005705
RXPRY,Ryhope General Hospital,NHS TRUST SITE,SR20LS,RXP,54.866509,-1.3635,E02001818
RXPCL,Sedgefield Community Hospital,NHS TRUST SITE,TS213EE,RXP,54.661885,-1.448492,E02004339
RTDAJ,Shotley Bridge Hospital Site,NHS TRUST SITE,DH80NB,RTD,54.869081,-1.842798,E02004298
RTF24,Sir G.B. Hunter Memorial Hospital,NHS TRUST SITE,NE287PB,RTF,54.99611,-1.531281,E02001766
RXPCX,South Moor Hospital Site,NHS TRUST SITE,DH96DF,RXP,54.857281,-1.688923,E02004301
RX454,South Tyneside District General Hospital,NHS TRUST SITE,NE340PL,RX4,54.971208,-1.428468,E02001778
RTDAX,Spire Washington Hospital,NHS TRUST SITE,NE389JZ,RTD,54.879364,-1.559116,E02001815
RX4E2,St. Georges Hospital Site,NHS TRUST SITE,NE612NU,RX4,55.178558,-1.682805,E02005721
RX4E4,St. Nicholas Hospital,NHS TRUST SITE,NE33XT,RX4,55.006488,-1.6331,E02001713
RTDAD,Street Community Hospital,NHS TRUST SITE,DH33AT,RTD,54.850934,-1.575063,E02004294
RX4J5,Sunderland Royal Hospital,NHS TRUST SITE,SR47TP,RX4,54.902214,-1.410327,E02001801
RTR0B,Tees Valley Hospital,NHS TRUST SITE,TS57DX,RTR,54.54643,-1.251004,E02002507
RTRAT,The James Cook University Hospital,NHS TRUST SITE,TS43BW,RTR,54.551755,-1.214805,E02002506
S0W9V,The Newcastle Upon Tyne Hospitals Nhs Foundation Trust,NHS TRUST SITE,NE14LP,RTD,54.98022,-1.618869,E02007099
RX3EW,University Hospital Of Hartlepool,NHS TRUST SITE,TS249AH,RX3,54.702398,-1.227837,E02002484
RX3EP,University Hospital Of North Durham,NHS TRUST SITE,DH15TW,RX3,54.788497,-1.593834,E02004315
RX3MF,University Hospital Of North Tees Mental Health Unit,NHS TRUST SITE,TS198PE,RX3,54.582857,-1.347581,E02002543
D5M0V,Virtual Ward Hospital@Home,NHS TRUST SITE,TS79JF,RTR,54.55007,-1.173698,E02006812
RTDDV,Walkergate Park Hospital,NHS TRUST SITE,NE64QD,RTD,54.989373,-1.56163,E02001727
RX4C4,Wansbeck General Hospital,NHS TRUST SITE,NE639JJ,RX4,55.18431,-1.546602,E02005736
RXP69,Weardale Hospital,NHS TRUST SITE,DL132JR,RXP,54.748007,-2.018564,E02004348
RX3MR,West Lane Hospital Newbury Centre,NHS TRUST SITE,TS54EE,RX3,54.562124,-1.25715,E02002504
RX3MM,West Park Hospital,NHS TRUST SITE,DL22TS,RX3,54.543494,-1.591147,E02002559
RVW02,Woodlands Hospital,NHS TRUST SITE,DL14PL,RVW,54.52036,-1.504671,E02002559
