msoa,org_code,sector,occupied_beds,available_beds,postcode,latitude,longitude
E02000100,R1K,Maternity,25.108696,68,HA13UJ,51.575407,-0.322037
E02000100,R1K,General & Acute,810.554348,987.467391,HA13UJ,51.575407,-0.322037
E02000100,R1K,Learning Disabilities,0,0,HA13UJ,51.575407,-0.322037
E02000100,R1K,Mental Illness,0,0,HA13UJ,51.575407,-0.322037
E02000173,RAL,Maternity,31.054348,83,NW32QG,51.553224,-0.165324
E02000173,RAL,General & Acute,768.554348,901.913043,NW32QG,51.553224,-0.165324
E02000173,RAL,Learning Disabilities,0,0,NW32QG,51.553224,-0.165324
E02000173,RAL,Mental Illness,0.01087,0.01087,NW32QG,51.553224,-0.165324
E02000184,TAF,Maternity,0,0,NW10PE,51.53665,-0.131658
E02000184,TAF,General & Acute,0,0,NW10PE,51.53665,-0.131658
E02000184,TAF,Learning Disabilities,0,0,NW10PE,51.53665,-0.131658
E02000184,TAF,Mental Illness,161.119565,190.163043,NW10PE,51.53665,-0.131658
E02000186,RRV,Maternity,41.782609,82.532609,NW12PG,51.525735,-0.137409
E02000186,RRV,General & Acute,448.880435,645.771739,NW12PG,51.525735,-0.137409
E02000186,RRV,Learning Disabilities,0,0,NW12PG,51.525735,-0.137409
E02000186,RRV,Mental Illness,8.358696,11.956522,NW12PG,51.525735,-0.137409
E02000186,RV3,Maternity,0,0,NW13AX,51.524345,-0.142166
E02000186,RV3,General & Acute,67.913043,73.880435,NW13AX,51.524345,-0.142166
E02000186,RV3,Learning Disabilities,8.706522,10.913043,NW13AX,51.524345,-0.142166
E02000186,RV3,Mental Illness,584.880435,639.521739,NW13AX,51.524345,-0.142166
E02000192,RP4,Maternity,0,0,WC1N3JH,51.52221,-0.119924
E02000192,RP4,General & Acute,202.934783,258.706522,WC1N3JH,51.52221,-0.119924
E02000192,RP4,Learning Disabilities,0,0,WC1N3JH,51.52221,-0.119924
E02000192,RP4,Mental Illness,0.467391,5.23913,WC1N3JH,51.52221,-0.119924
E02000208,RJ6,Maternity,38.23913,61,CR77YE,51.389128,-0.108758
E02000208,RJ6,General & Acute,370.695652,428.956522,CR77YE,51.389128,-0.108758
E02000208,RJ6,Learning Disabilities,0,0,CR77YE,51.389128,-0.108758
E02000208,RJ6,Mental Illness,0,0,CR77YE,51.389128,-0.108758
E02000266,RKL,Maternity,0,0,UB24SD,51.506315,-0.358547
E02000266,RKL,General & Acute,44.369565,70,UB24SD,51.506315,-0.358547
E02000266,RKL,Learning Disabilities,0,0,UB24SD,51.506315,-0.358547
E02000266,RKL,Mental Illness,560.01087,667.913043,UB24SD,51.506315,-0.358547
E02000363,RQX,Maternity,24.98913,41,E96SR,51.550634,-0.046099
E02000363,RQX,General & Acute,185.141304,259.282609,E96SR,51.550634,-0.046099
E02000363,RQX,Learning Disabilities,0,0,E96SR,51.550634,-0.046099
E02000363,RQX,Mental Illness,0,0,E96SR,51.550634,-0.046099
E02000423,RRP,Maternity,0,0,N153TH,51.580625,-0.092097
E02000423,RRP,General & Acute,0,0,N153TH,51.580625,-0.092097
E02000423,RRP,Learning Disabilities,0,0,N153TH,51.580625,-0.092097
E02000423,RRP,Mental Illness,478.456522,512.315217,N153TH,51.580625,-0.092097
E02000433,RAN,Maternity,0,0,HA74LP,51.632566,-0.310435
E02000433,RAN,General & Acute,90.271739,133.543478,HA74LP,51.632566,-0.310435
E02000433,RAN,Learning Disabilities,0,0,HA74LP,51.632566,-0.310435
E02000433,RAN,Mental Illness,0,0,HA74LP,51.632566,-0.310435
E02000480,RF4,Maternity,46.793478,46.793478,RM70AG,51.568647,0.179031
E02000480,RF4,General & Acute,764.076087,910.771739,RM70AG,51.568647,0.179031
E02000480,RF4,Learning Disabilities,0,0,RM70AG,51.568647,0.179031
E02000480,RF4,Mental Illness,0,0,RM70AG,51.568647,0.179031
E02000491,RAT,Maternity,0,0,RM138GQ,51.518578,0.171162
E02000491,RAT,General & Acute,136.554348,177.73913,RM138GQ,51.518578,0.171162
E02000491,RAT,Learning Disabilities,5.456522,12,RM138GQ,51.518578,0.171162
E02000491,RAT,Mental Illness,190.152174,226.891304,RM138GQ,51.518578,0.171162
E02000510,RAS,Maternity,18.304348,71.184783,UB83NN,51.526077,-0.461175
E02000510,RAS,General & Acute,296.576087,355.380435,UB83NN,51.526077,-0.461175
E02000510,RAS,Learning Disabilities,0,0,UB83NN,51.526077,-0.461175
E02000510,RAS,Mental Illness,0,0,UB83NN,51.526077,-0.461175
E02000557,RKE,Maternity,25.793478,54,N195NF,51.566482,-0.139066
E02000557,RKE,General & Acute,185.663043,229.456522,N195NF,51.566482,-0.139066
E02000557,RKE,Learning Disabilities,0,0,N195NF,51.566482,-0.139066
E02000557,RKE,Mental Illness,12,12.891304,N195NF,51.566482,-0.139066
E02000576,RP6,Maternity,0,0,EC1V2PD,51.527246,-0.089889
E02000576,RP6,General & Acute,2.391304,7.826087,EC1V2PD,51.527246,-0.089889
E02000576,RP6,Learning Disabilities,0,0,EC1V2PD,51.527246,-0.089889
E02000576,RP6,Mental Illness,0,0,EC1V2PD,51.527246,-0.089889
E02000595,RPY,Maternity,0,0,SW36JJ,51.490561,-0.172565
E02000595,RPY,General & Acute,147.369565,190.163043,SW36JJ,51.490561,-0.172565
E02000595,RPY,Learning Disabilities,0,0,SW36JJ,51.490561,-0.172565
E02000595,RPY,Mental Illness,0,0,SW36JJ,51.490561,-0.172565
E02000595,RT3,Maternity,0,0,SW36NP,51.489743,-0.170855
E02000595,RT3,General & Acute,158.695652,228.48913,SW36NP,51.489743,-0.170855
E02000595,RT3,Learning Disabilities,0,0,SW36NP,51.489743,-0.170855
E02000595,RT3,Mental Illness,0,0,SW36NP,51.489743,-0.170855
E02000596,RQM,Maternity,43.554348,127.228261,SW109NH,51.484308,-0.181644
E02000596,RQM,General & Acute,589.456522,750.51087,SW109NH,51.484308,-0.181644
E02000596,RQM,Learning Disabilities,0,0,SW109NH,51.484308,-0.181644
E02000596,RQM,Mental Illness,0,0,SW109NH,51.484308,-0.181644
E02000600,RAX,Maternity,46.358696,55,KT27QB,51.414826,-0.282601
E02000600,RAX,General & Acute,338.23913,402.51087,KT27QB,51.414826,-0.282601
E02000600,RAX,Learning Disabilities,0,0,KT27QB,51.414826,-0.282601
E02000600,RAX,Mental Illness,0,0,KT27QB,51.414826,-0.282601
E02000631,RJZ,Maternity,74.608696,119,SE59RS,51.468077,-0.093916
E02000631,RJZ,General & Acute,1158.108696,1272.26087,SE59RS,51.468077,-0.093916
E02000631,RJZ,Learning Disabilities,0,0,SE59RS,51.468077,-0.093916
E02000631,RJZ,Mental Illness,0,0,SE59RS,51.468077,-0.093916
E02000841,RVR,Maternity,29.184783,95,SM51AA,51.380188,-0.183708
E02000841,RVR,General & Acute,495.565217,672.119565,SM51AA,51.380188,-0.183708
E02000841,RVR,Learning Disabilities,0,0,SM51AA,51.380188,-0.183708
E02000841,RVR,Mental Illness,0,0,SM51AA,51.380188,-0.183708
E02000880,R1H,Maternity,109.413043,195,E12ES,51.517167,-0.05605
E02000880,R1H,General & Acute,1415.184783,1584,E12ES,51.517167,-0.05605
E02000880,R1H,Learning Disabilities,0,0,E12ES,51.517167,-0.05605
E02000880,R1H,Mental Illness,0,0,E12ES,51.517167,-0.05605
E02000884,RWK,Maternity,0,0,E18DE,51.513374,-0.071865
E02000884,RWK,General & Acute,20.641304,51,E18DE,51.513374,-0.071865
E02000884,RWK,Learning Disabilities,0,7,E18DE,51.513374,-0.071865
E02000884,RWK,Mental Illness,706.173913,855.641304,E18DE,51.513374,-0.071865
E02000949,RQY,Maternity,0,0,SW177DJ,51.437358,-0.172348
E02000949,RQY,General & Acute,0,0,SW177DJ,51.437358,-0.172348
E02000949,RQY,Learning Disabilities,0,0,SW177DJ,51.437358,-0.172348
E02000949,RQY,Mental Illness,315.76087,364.206522,SW177DJ,51.437358,-0.172348
E02000956,RJ7,Maternity,29.195652,67,SW170QT,51.426682,-0.175694
E02000956,RJ7,General & Acute,689.434783,829.978261,SW170QT,51.426682,-0.175694
E02000956,RJ7,Learning Disabilities,0,0,SW170QT,51.426682,-0.175694
E02000956,RJ7,Mental Illness,0,0,SW170QT,51.426682,-0.175694
E02000970,RYX,Maternity,0,0,NW15JD,51.522838,-0.151539
E02000970,RYX,General & Acute,0,0,NW15JD,51.522838,-0.151539
E02000970,RYX,Learning Disabilities,0,0,NW15JD,51.522838,-0.151539
E02000970,RYX,Mental Illness,0,0,NW15JD,51.522838,-0.151539
E02000974,RYJ,Maternity,71.782609,140.597826,W21BL,51.51754,-0.174411
E02000974,RYJ,General & Acute,845.423913,1007.73913,W21BL,51.51754,-0.174411
E02000974,RYJ,Learning Disabilities,0,0,W21BL,51.51754,-0.174411
E02000974,RYJ,Mental Illness,0,0,W21BL,51.51754,-0.174411
E02001012,RMC,Learning Disabilities,0,0,BL40JR,53.553957,-2.429894
E02001012,RMC,General & Acute,448.836957,566.967391,BL40JR,53.553957,-2.429894
E02001012,RMC,Mental Illness,0,0,BL40JR,53.553957,-2.429894
E02001012,RMC,Maternity,45.663043,78,BL40JR,53.553957,-2.429894
E02001050,RW6,Learning Disabilities,0,0,M85RB,53.517882,-2.229502
E02001050,RW6,General & Acute,855.804348,1045.456522,M85RB,53.517882,-2.229502
E02001050,RW6,Mental Illness,0,0,M85RB,53.517882,-2.229502
E02001050,RW6,Maternity,63.684783,127.51087,M85RB,53.517882,-2.229502
E02001062,R0A,Learning Disabilities,0,0,M139WL,53.462436,-2.227711
E02001062,R0A,General & Acute,"1,339",1669.01087,M139WL,53.462436,-2.227711
E02001062,R0A,Mental Illness,11,12,M139WL,53.462436,-2.227711
E02001062,R0A,Maternity,105.684783,155.913043,M139WL,53.462436,-2.227711
E02001082,RBV,Learning Disabilities,0,0,M204BX,53.429767,-2.230125
E02001082,RBV,General & Acute,121.467391,142.673913,M204BX,53.429767,-2.230125
E02001082,RBV,Mental Illness,0,0,M204BX,53.429767,-2.230125
E02001082,RBV,Maternity,0,0,M204BX,53.429767,-2.230125
E02001177,RM3,Learning Disabilities,0,0,M68HD,53.487545,-2.323424
E02001177,RM3,General & Acute,702.673913,849.413043,M68HD,53.487545,-2.323424
E02001177,RM3,Mental Illness,0,0,M68HD,53.487545,-2.323424
E02001177,RM3,Maternity,0,0,M68HD,53.487545,-2.323424
E02001213,RWJ,Learning Disabilities,0,0,SK27JE,53.383778,-2.13202
E02001213,RWJ,General & Acute,453.206522,535.065217,SK27JE,53.383778,-2.13202
E02001213,RWJ,Mental Illness,0,0,SK27JE,53.383778,-2.13202
E02001213,RWJ,Maternity,23.358696,53.902174,SK27JE,53.383778,-2.13202
E02001235,RMP,Learning Disabilities,0,0,OL69RW,53.49153,-2.071433
E02001235,RMP,General & Acute,291,378.804348,OL69RW,53.49153,-2.071433
E02001235,RMP,Mental Illness,0,0,OL69RW,53.49153,-2.071433
E02001235,RMP,Maternity,14.717391,33,OL69RW,53.49153,-2.071433
E02001241,RT2,Learning Disabilities,0,0,OL67SR,53.485827,-2.099981
E02001241,RT2,General & Acute,0,0,OL67SR,53.485827,-2.099981
E02001241,RT2,Mental Illness,426.326087,495.543478,OL67SR,53.485827,-2.099981
E02001241,RT2,Maternity,0,0,OL67SR,53.485827,-2.099981
E02001292,RRF,Learning Disabilities,0,0,WN12NN,53.55774,-2.629091
E02001292,RRF,General & Acute,377,522.434783,WN12NN,53.55774,-2.629091
E02001292,RRF,Mental Illness,0,0,WN12NN,53.55774,-2.629091
E02001292,RRF,Maternity,16.293478,28,WN12NN,53.55774,-2.629091
E02001335,RBN,Learning Disabilities,0,0,L355DR,53.420469,-2.784954
E02001335,RBN,General & Acute,624.326087,708.576087,L355DR,53.420469,-2.784954
E02001335,RBN,Mental Illness,0,0,L355DR,53.420469,-2.784954
E02001335,RBN,Maternity,6.173913,9.25,L355DR,53.420469,-2.784954
E02001337,RW4,Learning Disabilities,91.271739,110.402174,L341PJ,53.424035,-2.826417
E02001337,RW4,General & Acute,0,0,L341PJ,53.424035,-2.826417
E02001337,RW4,Mental Illness,508.141304,596.576087,L341PJ,53.424035,-2.826417
E02001337,RW4,Maternity,0,0,L341PJ,53.424035,-2.826417
E02001351,RET,Learning Disabilities,0,0,L97LJ,53.466395,-2.931
E02001351,RET,General & Acute,97.26087,138.304348,L97LJ,53.466395,-2.931
E02001351,RET,Mental Illness,0,0,L97LJ,53.466395,-2.931
E02001351,RET,Maternity,0,0,L97LJ,53.466395,-2.931
E02001372,RBQ,Learning Disabilities,0,0,L143PE,53.411151,-2.897989
E02001372,RBQ,General & Acute,91,120.119565,L143PE,53.411151,-2.897989
E02001372,RBQ,Mental Illness,0,0,L143PE,53.411151,-2.897989
E02001372,RBQ,Maternity,0,0,L143PE,53.411151,-2.897989
E02001372,RBS,Learning Disabilities,0,0,L122AP,53.421263,-2.897795
E02001372,RBS,General & Acute,136.23913,219.25,L122AP,53.421263,-2.897795
E02001372,RBS,Mental Illness,6.891304,7,L122AP,53.421263,-2.897795
E02001372,RBS,Maternity,0,0,L122AP,53.421263,-2.897795
E02001377,REM,Learning Disabilities,0,0,L78XP,53.409506,-2.964809
E02001377,REM,General & Acute,1265.271739,1425.51087,L78XP,53.409506,-2.964809
E02001377,REM,Mental Illness,0,0,L78XP,53.409506,-2.964809
E02001377,REM,Maternity,0,0,L78XP,53.409506,-2.964809
E02001377,REP,Learning Disabilities,0,0,L87SS,53.398461,-2.960077
E02001377,REP,General & Acute,13.119565,27.663043,L87SS,53.398461,-2.960077
E02001377,REP,Mental Illness,0,0,L87SS,53.398461,-2.960077
E02001377,REP,Maternity,50.413043,97.369565,L87SS,53.398461,-2.960077
E02001436,RVY,Learning Disabilities,0,0,PR86PN,53.63357,-2.97882
E02001436,RVY,General & Acute,311.836957,412.76087,PR86PN,53.63357,-2.97882
E02001436,RVY,Mental Illness,0,0,PR86PN,53.63357,-2.97882
E02001436,RVY,Maternity,9.880435,29.065217,PR86PN,53.63357,-2.97882
E02001491,RBL,Learning Disabilities,0,0,CH495PE,53.36964,-3.096815
E02001491,RBL,General & Acute,564.956522,678.521739,CH495PE,53.36964,-3.096815
E02001491,RBL,Mental Illness,0,0,CH495PE,53.36964,-3.096815
E02001491,RBL,Maternity,17.021739,32,CH495PE,53.36964,-3.096815
E02001504,REN,Learning Disabilities,0,0,CH634JY,53.332283,-3.025848
E02001504,REN,General & Acute,44.858696,83.065217,CH634JY,53.332283,-3.025848
E02001504,REN,Mental Illness,0,0,CH634JY,53.332283,-3.025848
E02001504,REN,Maternity,0,0,CH634JY,53.332283,-3.025848
E02001520,RFF,Learning Disabilities,0,0,S752EP,53.559132,-1.499493
E02001520,RFF,General & Acute,411.467391,428,S752EP,53.559132,-1.499493
E02001520,RFF,Mental Illness,0,0,S752EP,53.559132,-1.499493
E02001520,RFF,Maternity,21.663043,33,S752EP,53.559132,-1.499493
E02001556,RP5,Learning Disabilities,0,0,DN25LT,53.530805,-1.108942
E02001556,RP5,General & Acute,620,647,DN25LT,53.530805,-1.108942
E02001556,RP5,Mental Illness,0,0,DN25LT,53.530805,-1.108942
E02001556,RP5,Maternity,33,77,DN25LT,53.530805,-1.108942
E02001566,RXE,Learning Disabilities,0,0,DN48QN,53.494823,-1.145978
E02001566,RXE,General & Acute,38.608696,74,DN48QN,53.494823,-1.145978
E02001566,RXE,Mental Illness,190.054348,242,DN48QN,53.494823,-1.145978
E02001566,RXE,Maternity,0,0,DN48QN,53.494823,-1.145978
E02001600,RFR,Learning Disabilities,0,0,S602UD,53.413972,-1.34288
E02001600,RFR,General & Acute,372.782609,434.347826,S602UD,53.413972,-1.34288
E02001600,RFR,Mental Illness,0,0,S602UD,53.413972,-1.34288
E02001600,RFR,Maternity,15.98913,23.478261,S602UD,53.413972,-1.34288
E02001630,RHQ,Learning Disabilities,0,0,S57AU,53.409821,-1.455965
E02001630,RHQ,General & Acute,1094.315217,1321.891304,S57AU,53.409821,-1.455965
E02001630,RHQ,Mental Illness,0,0,S57AU,53.409821,-1.455965
E02001630,RHQ,Maternity,42.98913,42.98913,S57AU,53.409821,-1.455965
E02001632,TAH,Learning Disabilities,5.902174,7,S47QQ,53.398186,-1.443225
E02001632,TAH,General & Acute,0,0,S47QQ,53.398186,-1.443225
E02001632,TAH,Mental Illness,129.858696,151.01087,S47QQ,53.398186,-1.443225
E02001632,TAH,Maternity,0,0,S47QQ,53.398186,-1.443225
E02001640,RCU,Learning Disabilities,0,0,S102TH,53.380599,-1.490629
E02001640,RCU,General & Acute,76.23913,142.478261,S102TH,53.380599,-1.490629
E02001640,RCU,Mental Illness,12,23.630435,S102TH,53.380599,-1.490629
E02001640,RCU,Maternity,0,0,S102TH,53.380599,-1.490629
E02001697,RR7,Learning Disabilities,0,0,NE96SX,54.93938,-1.580781
E02001697,RR7,General & Acute,347.26087,405.521739,NE96SX,54.93938,-1.580781
E02001697,RR7,Mental Illness,16.043478,32,NE96SX,54.93938,-1.580781
E02001697,RR7,Maternity,12.532609,16,NE96SX,54.93938,-1.580781
E02001713,RX4,Learning Disabilities,85.728261,102,NE33XT,55.006488,-1.6331
E02001713,RX4,General & Acute,44.347826,49,NE33XT,55.006488,-1.6331
E02001713,RX4,Mental Illness,543.543478,642,NE33XT,55.006488,-1.6331
E02001713,RX4,Maternity,0,0,NE33XT,55.006488,-1.6331
E02001714,RTD,Learning Disabilities,0,0,NE77DN,55.002783,-1.593392
E02001714,RTD,General & Acute,1008.869565,1236.23913,NE77DN,55.002783,-1.593392
E02001714,RTD,Mental Illness,0,0,NE77DN,55.002783,-1.593392
E02001714,RTD,Maternity,37.152174,96,NE77DN,55.002783,-1.593392
E02001750,RTF,Learning Disabilities,0,0,NE298NH,55.025241,-1.46734
E02001750,RTF,General & Acute,610.771739,809.945652,NE298NH,55.025241,-1.46734
E02001750,RTF,Mental Illness,12.923913,28,NE298NH,55.025241,-1.46734
E02001750,RTF,Maternity,17.315217,31.076087,NE298NH,55.025241,-1.46734
E02001801,R0B,Learning Disabilities,0,0,SR47TP,54.902214,-1.410327
E02001801,R0B,General & Acute,739.836957,988.51087,SR47TP,54.902214,-1.410327
E02001801,R0B,Mental Illness,0,0,SR47TP,54.902214,-1.410327
E02001801,R0B,Maternity,19,41,SR47TP,54.902214,-1.410327
E02001876,RQ3,Learning Disabilities,0,0,B46NH,52.484784,-1.893808
E02001876,RQ3,General & Acute,165.804348,273.48913,B46NH,52.484784,-1.893808
E02001876,RQ3,Mental Illness,21.706522,34,B46NH,52.484784,-1.893808
E02001876,RQ3,Maternity,61.73913,102,B46NH,52.484784,-1.893808
E02001876,RYW,Learning Disabilities,0,0,B74BN,52.487324,-1.885825
E02001876,RYW,General & Acute,115.23913,145.880435,B74BN,52.487324,-1.885825
E02001876,RYW,Mental Illness,0,0,B74BN,52.487324,-1.885825
E02001876,RYW,Maternity,0,0,B74BN,52.487324,-1.885825
E02001879,RXK,Learning Disabilities,0,0,B187QH,52.488627,-1.932507
E02001879,RXK,General & Acute,532.902174,657.434783,B187QH,52.488627,-1.932507
E02001879,RXK,Mental Illness,0,0,B187QH,52.488627,-1.932507
E02001879,RXK,Maternity,36.847826,62.01087,B187QH,52.488627,-1.932507
E02001913,RRK,Learning Disabilities,0,0,B152GW,52.453198,-1.93847
E02001913,RRK,General & Acute,2276.445652,2368.173913,B152GW,52.453198,-1.93847
E02001913,RRK,Mental Illness,0,0,B152GW,52.453198,-1.93847
E02001913,RRK,Maternity,89.184783,140.271739,B152GW,52.453198,-1.93847
E02001914,RXT,Learning Disabilities,0,0,B138QY,52.440919,-1.897096
E02001914,RXT,General & Acute,0,0,B138QY,52.440919,-1.897096
E02001914,RXT,Mental Illness,618.282609,664.923913,B138QY,52.440919,-1.897096
E02001914,RXT,Maternity,0,0,B138QY,52.440919,-1.897096
E02001939,RRJ,Learning Disabilities,0,0,B312AP,52.420088,-1.96116
E02001939,RRJ,General & Acute,60.869565,103.434783,B312AP,52.420088,-1.96116
E02001939,RRJ,Mental Illness,0,0,B312AP,52.420088,-1.96116
E02001939,RRJ,Maternity,0,0,B312AP,52.420088,-1.96116
E02001958,RYG,Learning Disabilities,40.73913,69,CV66NY,52.457137,-1.486518
E02001958,RYG,General & Acute,0,0,CV66NY,52.457137,-1.486518
E02001958,RYG,Mental Illness,189.065217,238.728261,CV66NY,52.457137,-1.486518
E02001958,RYG,Maternity,0,0,CV66NY,52.457137,-1.486518
E02001976,RKB,Maternity,5.152174,70,CV22DX,52.421211,-1.438403
E02001976,RKB,Learning Disabilities,0,0,CV22DX,52.421211,-1.438403
E02001976,RKB,General & Acute,911.576087,1039.934783,CV22DX,52.421211,-1.438403
E02001976,RKB,Mental Illness,0,0,CV22DX,52.421211,-1.438403
E02002012,RNA,Maternity,25.391304,49,DY12HQ,52.502944,-2.118518
E02002012,RNA,Learning Disabilities,0,0,DY12HQ,52.502944,-2.118518
E02002012,RNA,General & Acute,524.206522,605.576087,DY12HQ,52.502944,-2.118518
E02002012,RNA,Mental Illness,0,0,DY12HQ,52.502944,-2.118518
E02002014,TAJ,Learning Disabilities,20.608696,29,DY28PS,52.508328,-2.084448
E02002014,TAJ,General & Acute,0,0,DY28PS,52.508328,-2.084448
E02002014,TAJ,Mental Illness,218.086957,271.663043,DY28PS,52.508328,-2.084448
E02002014,TAJ,Maternity,0,0,DY28PS,52.508328,-2.084448
E02002135,RBK,Maternity,15.086957,28.869565,WS29PS,52.58233,-1.998924
E02002135,RBK,Learning Disabilities,0,0,WS29PS,52.58233,-1.998924
E02002135,RBK,General & Acute,383.152174,465.021739,WS29PS,52.58233,-1.998924
E02002135,RBK,Mental Illness,0,0,WS29PS,52.58233,-1.998924
E02002163,RL4,Maternity,33,36,WV100QP,52.599722,-2.095555
E02002163,RL4,Learning Disabilities,0,0,WV100QP,52.599722,-2.095555
E02002163,RL4,General & Acute,672.652174,788.902174,WV100QP,52.599722,-2.095555
E02002163,RL4,Mental Illness,0,0,WV100QP,52.599722,-2.095555
E02002202,TAD,Learning Disabilities,3.326087,6,BD183LD,53.839675,-1.788605
E02002202,TAD,General & Acute,0,0,BD183LD,53.839675,-1.788605
E02002202,TAD,Mental Illness,164.26087,200,BD183LD,53.839675,-1.788605
E02002202,TAD,Maternity,0,0,BD183LD,53.839675,-1.788605
E02002219,RAE,Learning Disabilities,0,0,BD96RJ,53.80598,-1.794697
E02002219,RAE,General & Acute,450.130435,555.880435,BD96RJ,53.80598,-1.794697
E02002219,RAE,Mental Illness,0,0,BD96RJ,53.80598,-1.794697
E02002219,RAE,Maternity,48.173913,76,BD96RJ,53.80598,-1.794697
E02002303,RWY,Learning Disabilities,0,0,HD33EA,53.655474,-1.816338
E02002303,RWY,General & Acute,467.608696,572.75,HD33EA,53.655474,-1.816338
E02002303,RWY,Mental Illness,0,0,HD33EA,53.655474,-1.816338
E02002303,RWY,Maternity,27.152174,51.282609,HD33EA,53.655474,-1.816338
E02002371,RGD,Learning Disabilities,4.141304,13,LS73JX,53.821038,-1.534962
E02002371,RGD,General & Acute,0,0,LS73JX,53.821038,-1.534962
E02002371,RGD,Mental Illness,307.51087,393,LS73JX,53.821038,-1.534962
E02002371,RGD,Maternity,0,0,LS73JX,53.821038,-1.534962
E02002393,RR8,Learning Disabilities,0,0,LS97TF,53.806869,-1.520359
E02002393,RR8,General & Acute,1438.380435,1735.163043,LS97TF,53.806869,-1.520359
E02002393,RR8,Mental Illness,0,0,LS97TF,53.806869,-1.520359
E02002393,RR8,Maternity,49.380435,122.315217,LS97TF,53.806869,-1.520359
E02002422,RY6,Learning Disabilities,0,0,LS110DL,53.762746,-1.575641
E02002422,RY6,General & Acute,0,0,LS110DL,53.762746,-1.575641
E02002422,RY6,Mental Illness,3.73913,8,LS110DL,53.762746,-1.575641
E02002422,RY6,Maternity,0,0,LS110DL,53.762746,-1.575641
E02002443,RXG,Learning Disabilities,17.695652,24,WF13SP,53.69734,-1.494054
E02002443,RXG,General & Acute,16.934783,24,WF13SP,53.69734,-1.494054
E02002443,RXG,Mental Illness,342.836957,423,WF13SP,53.69734,-1.494054
E02002443,RXG,Maternity,0,0,WF13SP,53.69734,-1.494054
E02002454,RXF,Learning Disabilities,0,0,WF14DG,53.692418,-1.488555
E02002454,RXF,General & Acute,760.23913,950.586957,WF14DG,53.692418,-1.488555
E02002454,RXF,Mental Illness,0,0,WF14DG,53.692418,-1.488555
E02002454,RXF,Maternity,36.391304,60,WF14DG,53.692418,-1.488555
E02002484,RVW,Learning Disabilities,0,0,TS249AH,54.702398,-1.227837
E02002484,RVW,General & Acute,424.380435,500.706522,TS249AH,54.702398,-1.227837
E02002484,RVW,Mental Illness,0,0,TS249AH,54.702398,-1.227837
E02002484,RVW,Maternity,9.782609,46,TS249AH,54.702398,-1.227837
E02002506,RTR,Learning Disabilities,0,0,TS43BW,54.551755,-1.214805
E02002506,RTR,General & Acute,606.619565,779.728261,TS43BW,54.551755,-1.214805
E02002506,RTR,Mental Illness,0,0,TS43BW,54.551755,-1.214805
E02002506,RTR,Maternity,19.73913,38,TS43BW,54.551755,-1.214805
E02002559,RX3,Learning Disabilities,82.076087,115,DL22TS,54.543494,-1.591147
E02002559,RX3,General & Acute,0,0,DL22TS,54.543494,-1.591147
E02002559,RX3,Mental Illness,514.391304,625.521739,DL22TS,54.543494,-1.591147
E02002559,RX3,Maternity,0,0,DL22TS,54.543494,-1.591147
E02002592,RTV,Learning Disabilities,3.271739,8.217391,WA28WA,53.429516,-2.606862
E02002592,RTV,General & Acute,0,0,WA28WA,53.429516,-2.606862
E02002592,RTV,Mental Illness,245,282,WA28WA,53.429516,-2.606862
E02002592,RTV,Maternity,0,0,WA28WA,53.429516,-2.606862
E02002602,RWW,Learning Disabilities,0,0,WA51QG,53.393973,-2.610717
E02002602,RWW,General & Acute,447.413043,507.891304,WA51QG,53.393973,-2.610717
E02002602,RWW,Mental Illness,0,0,WA51QG,53.393973,-2.610717
E02002602,RWW,Maternity,18.152174,42.521739,WA51QG,53.393973,-2.610717
E02002625,RXR,Learning Disabilities,0,0,BB23HH,53.73556,-2.462716
E02002625,RXR,General & Acute,708.282609,855.945652,BB23HH,53.73556,-2.462716
E02002625,RXR,Mental Illness,0,0,BB23HH,53.73556,-2.462716
E02002625,RXR,Maternity,32.521739,78.141304,BB23HH,53.73556,-2.462716
E02002641,RXL,Learning Disabilities,0,0,FY38NR,53.820675,-3.016275
E02002641,RXL,General & Acute,563.586957,643,FY38NR,53.820675,-3.016275
E02002641,RXL,Mental Illness,0,0,FY38NR,53.820675,-3.016275
E02002641,RXL,Maternity,20.195652,37.826087,FY38NR,53.820675,-3.016275
E02002675,RWA,Learning Disabilities,0,0,HU32JZ,53.744113,-0.358146
E02002675,RWA,General & Acute,739,891.445652,HU32JZ,53.744113,-0.358146
E02002675,RWA,Mental Illness,0,0,HU32JZ,53.744113,-0.358146
E02002675,RWA,Maternity,31.826087,76,HU32JZ,53.744113,-0.358146
E02002705,RV9,Learning Disabilities,7.195652,14,HU106FE,53.771067,-0.447309
E02002705,RV9,General & Acute,0,0,HU106FE,53.771067,-0.447309
E02002705,RV9,Mental Illness,130.597826,176.304348,HU106FE,53.771067,-0.447309
E02002705,RV9,Maternity,0,0,HU106FE,53.771067,-0.447309
E02002741,RJL,Learning Disabilities,0,0,DN332BA,53.544882,-0.096233
E02002741,RJL,General & Acute,550.336957,605.315217,DN332BA,53.544882,-0.096233
E02002741,RJL,Mental Illness,0,0,DN332BA,53.544882,-0.096233
E02002741,RJL,Maternity,27.141304,70,DN332BA,53.544882,-0.096233
E02002780,RCB,Learning Disabilities,0,0,YO318HE,53.968952,-1.084285
E02002780,RCB,General & Acute,710.184783,736.043478,YO318HE,53.968952,-1.084285
E02002780,RCB,Mental Illness,0,0,YO318HE,53.968952,-1.084285
E02002780,RCB,Maternity,27.054348,46.043478,YO318HE,53.968952,-1.084285
E02002812,RTG,Learning Disabilities,0,0,DE223NE,52.910425,-1.513523
E02002812,RTG,General & Acute,1076.01087,1338.413043,DE223NE,52.910425,-1.513523
E02002812,RTG,Mental Illness,0,0,DE223NE,52.910425,-1.513523
E02002812,RTG,Maternity,53.119565,97.826087,DE223NE,52.910425,-1.513523
E02002812,RXM,Learning Disabilities,0,0,DE223LZ,52.91807,-1.512351
E02002812,RXM,General & Acute,0,0,DE223LZ,52.91807,-1.512351
E02002812,RXM,Mental Illness,165.804348,238.902174,DE223LZ,52.91807,-1.512351
E02002812,RXM,Maternity,0,0,DE223LZ,52.91807,-1.512351
E02002877,RHA,Maternity,0,0,NG36AA,52.979272,-1.12643
E02002877,RHA,Learning Disabilities,57.163043,68,NG36AA,52.979272,-1.12643
E02002877,RHA,General & Acute,72.304348,100.75,NG36AA,52.979272,-1.12643
E02002877,RHA,Mental Illness,595.25,836.228261,NG36AA,52.979272,-1.12643
E02002898,RX1,Learning Disabilities,0,0,NG72UH,52.943799,-1.185957
E02002898,RX1,General & Acute,1176.815217,1473.76087,NG72UH,52.943799,-1.185957
E02002898,RX1,Mental Illness,0,0,NG72UH,52.943799,-1.185957
E02002898,RX1,Maternity,75.619565,108,NG72UH,52.943799,-1.185957
E02002916,RLQ,Maternity,7.195652,17,HR12ER,52.057013,-2.705709
E02002916,RLQ,Learning Disabilities,0,0,HR12ER,52.057013,-2.705709
E02002916,RLQ,General & Acute,203.152174,244.119565,HR12ER,52.057013,-2.705709
E02002916,RLQ,Mental Illness,0,0,HR12ER,52.057013,-2.705709
E02002968,RJE,Maternity,53.271739,64,ST46QG,53.003262,-2.211798
E02002968,RJE,Learning Disabilities,0,0,ST46QG,53.003262,-2.211798
E02002968,RJE,General & Acute,935.75,1260.608696,ST46QG,53.003262,-2.211798
E02002968,RJE,Mental Illness,0,0,ST46QG,53.003262,-2.211798
E02002982,RLY,Maternity,0,0,ST48HH,52.96839,-2.167808
E02002982,RLY,Learning Disabilities,6,12,ST48HH,52.96839,-2.167808
E02002982,RLY,General & Acute,0,0,ST48HH,52.96839,-2.167808
E02002982,RLY,Mental Illness,123.271739,174.641304,ST48HH,52.96839,-2.167808
E02002992,RD1,Maternity,24.76087,24.76087,BA13NG,51.391665,-2.391218
E02002992,RD1,General & Acute,492.826087,535.293478,BA13NG,51.391665,-2.391218
E02002992,RD1,Learning Disabilities,0,0,BA13NG,51.391665,-2.391218
E02002992,RD1,Mental Illness,0,0,BA13NG,51.391665,-2.391218
E02002992,RVN,Maternity,0,0,BA13QE,51.388604,-2.392313
E02002992,RVN,General & Acute,0,0,BA13QE,51.388604,-2.392313
E02002992,RVN,Learning Disabilities,3.608696,5,BA13QE,51.388604,-2.392313
E02002992,RVN,Mental Illness,365.076087,524.021739,BA13QE,51.388604,-2.392313
E02003015,RVJ,Maternity,37.576087,55,BS105NB,51.494806,-2.591016
E02003015,RVJ,General & Acute,732.304348,845.282609,BS105NB,51.494806,-2.591016
E02003015,RVJ,Learning Disabilities,0,0,BS105NB,51.494806,-2.591016
E02003015,RVJ,Mental Illness,2.695652,12,BS105NB,51.494806,-2.591016
E02003036,RA7,Maternity,43.108696,72.01087,BS13NU,51.459478,-2.593019
E02003036,RA7,General & Acute,816.641304,940.478261,BS13NU,51.459478,-2.593019
E02003036,RA7,Learning Disabilities,0,0,BS13NU,51.459478,-2.593019
E02003036,RA7,Mental Illness,0,0,BS13NU,51.459478,-2.593019
E02003126,RK9,Maternity,27.815217,58,PL68DH,50.41672,-4.113684
E02003126,RK9,General & Acute,693.478261,830.445652,PL68DH,50.41672,-4.113684
E02003126,RK9,Learning Disabilities,0,0,PL68DH,50.41672,-4.113684
E02003126,RK9,Mental Illness,0,0,PL68DH,50.41672,-4.113684
E02003156,RA9,Maternity,8.695652,20,TQ27AA,50.482316,-3.553804
E02003156,RA9,General & Acute,255.206522,334,TQ27AA,50.482316,-3.553804
E02003156,RA9,Learning Disabilities,0,0,TQ27AA,50.482316,-3.553804
E02003156,RA9,Mental Illness,0,0,TQ27AA,50.482316,-3.553804
E02003197,RDY,Maternity,0,0,BH170RB,50.740073,-1.978038
E02003197,RDY,General & Acute,0,0,BH170RB,50.740073,-1.978038
E02003197,RDY,Learning Disabilities,0,0,BH170RB,50.740073,-1.978038
E02003197,RDY,Mental Illness,158.880435,210.391304,BH170RB,50.740073,-1.978038
E02003208,R0D,Maternity,29.152174,60,BH152JB,50.721987,-1.973117
E02003208,R0D,General & Acute,854.108696,1082.793478,BH152JB,50.721987,-1.973117
E02003208,R0D,Learning Disabilities,0,0,BH152JB,50.721987,-1.973117
E02003208,R0D,Mental Illness,0,0,BH152JB,50.721987,-1.973117
E02003219,RN3,Maternity,19.684783,30,SN36BB,51.538528,-1.7272
E02003219,RN3,General & Acute,464.717391,518.01087,SN36BB,51.538528,-1.7272
E02003219,RN3,Learning Disabilities,0,0,SN36BB,51.538528,-1.7272
E02003219,RN3,Mental Illness,0,0,SN36BB,51.538528,-1.7272
E02003251,RGN,Learning Disabilities,0,0,PE39GZ,52.583921,-0.279386
E02003251,RGN,General & Acute,735.815217,770.771739,PE39GZ,52.583921,-0.279386
E02003251,RGN,Mental Illness,0,0,PE39GZ,52.583921,-0.279386
E02003251,RGN,Maternity,42.141304,109,PE39GZ,52.583921,-0.279386
E02003270,RC9,Learning Disabilities,0,0,LU40DZ,51.894152,-0.474405
E02003270,RC9,General & Acute,861.75,1023.119565,LU40DZ,51.894152,-0.474405
E02003270,RC9,Mental Illness,0,0,LU40DZ,51.894152,-0.474405
E02003270,RC9,Maternity,69.543478,103.402174,LU40DZ,51.894152,-0.474405
E02003282,RAJ,Learning Disabilities,0,0,SS00RY,51.553838,0.688617
E02003282,RAJ,General & Acute,1467.043478,1734.619565,SS00RY,51.553838,0.688617
E02003282,RAJ,Mental Illness,0,0,SS00RY,51.553838,0.688617
E02003282,RAJ,Maternity,71.141304,141,SS00RY,51.553838,0.688617
E02003325,RPA,Maternity,22.5,46,ME75NY,51.379862,0.542062
E02003325,RPA,Learning Disabilities,0,0,ME75NY,51.379862,0.542062
E02003325,RPA,General & Acute,357.565217,617.793478,ME75NY,51.379862,0.542062
E02003325,RPA,Mental Illness,0,0,ME75NY,51.379862,0.542062
E02003357,RWX,Maternity,0,0,RG122UT,51.416178,-0.740213
E02003357,RWX,Learning Disabilities,3.097826,9,RG122UT,51.416178,-0.740213
E02003357,RWX,General & Acute,19.847826,36.347826,RG122UT,51.416178,-0.740213
E02003357,RWX,Mental Illness,118.804348,146,RG122UT,51.416178,-0.740213
E02003402,RHW,Maternity,24.978261,50.445652,RG15AN,51.451022,-0.95933
E02003402,RHW,General & Acute,433.554348,459.108696,RG15AN,51.451022,-0.95933
E02003402,RHW,Learning Disabilities,0,0,RG15AN,51.451022,-0.95933
E02003402,RHW,Mental Illness,0,0,RG15AN,51.451022,-0.95933
E02003476,RD8,Learning Disabilities,0,0,MK65LD,52.026384,-0.73576
E02003476,RD8,General & Acute,359.23913,387.663043,MK65LD,52.026384,-0.73576
E02003476,RD8,Mental Illness,0,0,MK65LD,52.026384,-0.73576
E02003476,RD8,Maternity,26.706522,53,MK65LD,52.026384,-0.73576
E02003521,RXH,Maternity,53.923913,70.228261,BN25BE,50.819468,-0.118177
E02003521,RXH,Learning Disabilities,0,0,BN25BE,50.819468,-0.118177
E02003521,RXH,General & Acute,644.543478,721.413043,BN25BE,50.819468,-0.118177
E02003521,RXH,Mental Illness,0,0,BN25BE,50.819468,-0.118177
E02003525,RHU,Maternity,31.967391,46.48913,PO63LY,50.850297,-1.069932
E02003525,RHU,General & Acute,920.847826,1002.978261,PO63LY,50.850297,-1.069932
E02003525,RHU,Learning Disabilities,0,0,PO63LY,50.850297,-1.069932
E02003525,RHU,Mental Illness,0,0,PO63LY,50.850297,-1.069932
E02003558,RHM,Maternity,53.380435,62.423913,SO166YD,50.933019,-1.435104
E02003558,RHM,General & Acute,886.608696,1138.793478,SO166YD,50.933019,-1.435104
E02003558,RHM,Learning Disabilities,0,0,SO166YD,50.933019,-1.435104
E02003558,RHM,Mental Illness,0,0,SO166YD,50.933019,-1.435104
E02003575,R1C,Maternity,0,0,SO198BR,50.901628,-1.329869
E02003575,R1C,General & Acute,57.652174,84.597826,SO198BR,50.901628,-1.329869
E02003575,R1C,Learning Disabilities,7.304348,10,SO198BR,50.901628,-1.329869
E02003575,R1C,Mental Illness,26.51087,47.673913,SO198BR,50.901628,-1.329869
E02003588,R1F,Maternity,6.097826,16,PO305TG,50.710832,-1.301363
E02003588,R1F,General & Acute,195.76087,224.358696,PO305TG,50.710832,-1.301363
E02003588,R1F,Learning Disabilities,0,0,PO305TG,50.710832,-1.301363
E02003588,R1F,Mental Illness,37.913043,39.5,PO305TG,50.710832,-1.301363
E02003682,RXQ,Maternity,35.956522,55.76087,HP70JD,51.663005,-0.621408
E02003682,RXQ,Learning Disabilities,0,0,HP70JD,51.663005,-0.621408
E02003682,RXQ,General & Acute,428.086957,442.173913,HP70JD,51.663005,-0.621408
E02003682,RXQ,Mental Illness,0,0,HP70JD,51.663005,-0.621408
E02003731,RGM,Learning Disabilities,0,0,CB20AY,52.173522,0.136046
E02003731,RGM,General & Acute,160.445652,236.641304,CB20AY,52.173522,0.136046
E02003731,RGM,Mental Illness,0,0,CB20AY,52.173522,0.136046
E02003731,RGM,Maternity,0,0,CB20AY,52.173522,0.136046
E02003731,RGT,Learning Disabilities,0,0,CB20QQ,52.173741,0.139114
E02003731,RGT,General & Acute,817.619565,846.554348,CB20QQ,52.173741,0.139114
E02003731,RGT,Mental Illness,0,0,CB20QQ,52.173741,0.139114
E02003731,RGT,Maternity,37.782609,59.021739,CB20QQ,52.173741,0.139114
E02003785,RT1,Learning Disabilities,3,10,CB215EF,52.184505,0.188329
E02003785,RT1,General & Acute,70.336957,85,CB215EF,52.184505,0.188329
E02003785,RT1,Mental Illness,172,217.184783,CB215EF,52.184505,0.188329
E02003785,RT1,Maternity,0,0,CB215EF,52.184505,0.188329
E02003797,RJR,Learning Disabilities,0,0,CH21UL,53.2088,-2.897884
E02003797,RJR,General & Acute,421.065217,428.847826,CH21UL,53.2088,-2.897884
E02003797,RJR,Mental Illness,0,0,CH21UL,53.2088,-2.897884
E02003797,RJR,Maternity,19.228261,51.847826,CH21UL,53.2088,-2.897884
E02003797,RXA,Learning Disabilities,21.01087,42,CH21BQ,53.211544,-2.898825
E02003797,RXA,General & Acute,0,0,CH21BQ,53.211544,-2.898825
E02003797,RXA,Mental Illness,235.130435,263.945652,CH21BQ,53.211544,-2.898825
E02003797,RXA,Maternity,0,0,CH21BQ,53.211544,-2.898825
E02003869,RJN,Learning Disabilities,0,0,SK103BL,53.262321,-2.141074
E02003869,RJN,General & Acute,253.413043,349.902174,SK103BL,53.262321,-2.141074
E02003869,RJN,Mental Illness,0,0,SK103BL,53.262321,-2.141074
E02003869,RJN,Maternity,0,0,SK103BL,53.262321,-2.141074
E02003909,REF,Maternity,24.652174,59,TR13LJ,50.266686,-5.091464
E02003909,REF,General & Acute,547,703.869565,TR13LJ,50.266686,-5.091464
E02003909,REF,Learning Disabilities,0,0,TR13LJ,50.266686,-5.091464
E02003909,REF,Mental Illness,0,0,TR13LJ,50.266686,-5.091464
E02003942,RJ8,Maternity,0,0,PL312QN,50.471755,-4.740857
E02003942,RJ8,General & Acute,68.445652,71.815217,PL312QN,50.471755,-4.740857
E02003942,RJ8,Learning Disabilities,0,0,PL312QN,50.471755,-4.740857
E02003942,RJ8,Mental Illness,98.163043,112.934783,PL312QN,50.471755,-4.740857
E02003994,RNN,Learning Disabilities,0,0,CA27HY,54.896504,-2.957796
E02003994,RNN,General & Acute,435,514.5,CA27HY,54.896504,-2.957796
E02003994,RNN,Mental Illness,0,0,CA27HY,54.896504,-2.957796
E02003994,RNN,Maternity,17.706522,37,CA27HY,54.896504,-2.957796
E02004020,RTX,Learning Disabilities,0,0,LA97RG,54.306116,-2.731605
E02004020,RTX,General & Acute,553.771739,582.347826,LA97RG,54.306116,-2.731605
E02004020,RTX,Mental Illness,0,0,LA97RG,54.306116,-2.731605
E02004020,RTX,Maternity,17.130435,37.478261,LA97RG,54.306116,-2.731605
E02004066,RFS,Maternity,15.902174,34,S445BL,53.236214,-1.400051
E02004066,RFS,Learning Disabilities,0,0,S445BL,53.236214,-1.400051
E02004066,RFS,General & Acute,365.532609,489.913043,S445BL,53.236214,-1.400051
E02004066,RFS,Mental Illness,0,0,S445BL,53.236214,-1.400051
E02004112,RY8,Learning Disabilities,5.51087,7.923913,S427JE,53.23967,-1.479477
E02004112,RY8,General & Acute,0,0,S427JE,53.23967,-1.479477
E02004112,RY8,Mental Illness,18.782609,33.043478,S427JE,53.23967,-1.479477
E02004112,RY8,Maternity,0,0,S427JE,53.23967,-1.479477
E02004161,RH8,Maternity,22.532609,48,EX25DW,50.716703,-3.50668
E02004161,RH8,General & Acute,673.184783,794.336957,EX25DW,50.716703,-3.50668
E02004161,RH8,Learning Disabilities,0,0,EX25DW,50.716703,-3.50668
E02004161,RH8,Mental Illness,0,0,EX25DW,50.716703,-3.50668
E02004161,RWV,Maternity,0,0,EX25AF,50.715395,-3.506298
E02004161,RWV,General & Acute,0,0,EX25AF,50.715395,-3.506298
E02004161,RWV,Learning Disabilities,3.684783,5,EX25AF,50.715395,-3.506298
E02004161,RWV,Mental Illness,253.413043,292.945652,EX25AF,50.715395,-3.506298
E02004181,RBZ,Maternity,5.26087,12.858696,EX314JB,51.092169,-4.050431
E02004181,RBZ,General & Acute,207.445652,288.369565,EX314JB,51.092169,-4.050431
E02004181,RBZ,Learning Disabilities,0,0,EX314JB,51.092169,-4.050431
E02004181,RBZ,Mental Illness,0,0,EX314JB,51.092169,-4.050431
E02004368,RXC,Maternity,13.26087,25,TN377PT,50.88769,0.561978
E02004368,RXC,Learning Disabilities,0,0,TN377PT,50.88769,0.561978
E02004368,RXC,General & Acute,569.73913,670.021739,TN377PT,50.88769,0.561978
E02004368,RXC,Mental Illness,0,0,TN377PT,50.88769,0.561978
E02004505,R1L,Learning Disabilities,10,10,SS117XX,51.633013,0.543374
E02004505,R1L,General & Acute,74.021739,88,SS117XX,51.633013,0.543374
E02004505,R1L,Mental Illness,388.413043,594,SS117XX,51.633013,0.543374
E02004505,R1L,Maternity,0,0,SS117XX,51.633013,0.543374
E02004547,RQW,Learning Disabilities,0,0,CM201QX,51.771529,0.085457
E02004547,RQW,General & Acute,301,405,CM201QX,51.771529,0.085457
E02004547,RQW,Mental Illness,0,0,CM201QX,51.771529,0.085457
E02004547,RQW,Maternity,28.619565,62,CM201QX,51.771529,0.085457
E02004608,RTE,Maternity,14.934783,46,GL537AN,51.89212,-2.071883
E02004608,RTE,General & Acute,783,851.695652,GL537AN,51.89212,-2.071883
E02004608,RTE,Learning Disabilities,0,0,GL537AN,51.89212,-2.071883
E02004608,RTE,Mental Illness,0,0,GL537AN,51.89212,-2.071883
E02004674,RTQ,Maternity,0,0,GL34AW,51.84708,-2.176384
E02004674,RTQ,General & Acute,0,0,GL34AW,51.84708,-2.176384
E02004674,RTQ,Learning Disabilities,6.771739,6.826087,GL34AW,51.84708,-2.176384
E02004674,RTQ,Mental Illness,142.565217,158.684783,GL34AW,51.84708,-2.176384
E02004684,RN5,Maternity,31,81.01087,RG249NA,51.280633,-1.109918
E02004684,RN5,General & Acute,552.358696,696.891304,RG249NA,51.280633,-1.109918
E02004684,RN5,Learning Disabilities,0,4,RG249NA,51.280633,-1.109918
E02004684,RN5,Mental Illness,0,0,RG249NA,51.280633,-1.109918
E02004784,RW1,Maternity,0,0,SO402RZ,50.9313,-1.530052
E02004784,RW1,Learning Disabilities,0,0,SO402RZ,50.9313,-1.530052
E02004784,RW1,General & Acute,68.304348,98,SO402RZ,50.9313,-1.530052
E02004784,RW1,Mental Illness,333.869565,463,SO402RZ,50.9313,-1.530052
E02004945,RWH,Learning Disabilities,0,0,SG14AB,51.924611,-0.212726
E02004945,RWH,General & Acute,448.358696,531.695652,SG14AB,51.924611,-0.212726
E02004945,RWH,Mental Illness,0,0,SG14AB,51.924611,-0.212726
E02004945,RWH,Maternity,39.065217,74.184783,SG14AB,51.924611,-0.212726
E02004977,RWG,Learning Disabilities,0,0,WD180HB,51.648921,-0.404187
E02004977,RWG,General & Acute,522.728261,681,WD180HB,51.648921,-0.404187
E02004977,RWG,Mental Illness,0,0,WD180HB,51.648921,-0.404187
E02004977,RWG,Maternity,21.358696,71.771739,WD180HB,51.648921,-0.404187
E02004990,RWR,Learning Disabilities,56.217391,61.195652,AL108YE,51.766985,-0.216688
E02004990,RWR,General & Acute,0,0,AL108YE,51.766985,-0.216688
E02004990,RWR,Mental Illness,298.228261,341.576087,AL108YE,51.766985,-0.216688
E02004990,RWR,Maternity,0,0,AL108YE,51.766985,-0.216688
E02005025,RVV,Maternity,36,50,CT13NG,51.266589,1.087083
E02005025,RVV,Learning Disabilities,0,0,CT13NG,51.266589,1.087083
E02005025,RVV,General & Acute,758,906.956522,CT13NG,51.266589,1.087083
E02005025,RVV,Mental Illness,0,0,CT13NG,51.266589,1.087083
E02005035,RN7,Maternity,27.554348,36,DA28DA,51.434952,0.258645
E02005035,RN7,General & Acute,432.326087,477.402174,DA28DA,51.434952,0.258645
E02005035,RN7,Learning Disabilities,0,0,DA28DA,51.434952,0.258645
E02005035,RN7,Mental Illness,0,0,DA28DA,51.434952,0.258645
E02005037,RPG,Maternity,0,0,DA27WG,51.434795,0.174741
E02005037,RPG,Learning Disabilities,5.717391,12,DA27WG,51.434795,0.174741
E02005037,RPG,General & Acute,0,0,DA27WG,51.434795,0.174741
E02005037,RPG,Mental Illness,296.336957,349.75,DA27WG,51.434795,0.174741
E02005075,RWF,Maternity,22.73913,43,ME169QQ,51.273662,0.483974
E02005075,RWF,Learning Disabilities,0,0,ME169QQ,51.273662,0.483974
E02005075,RWF,General & Acute,584.76087,665.923913,ME169QQ,51.273662,0.483974
E02005075,RWF,Mental Illness,0,0,ME169QQ,51.273662,0.483974
E02005075,RXY,Maternity,0,0,ME169PH,51.273212,0.485699
E02005075,RXY,Learning Disabilities,0,0,ME169PH,51.273212,0.485699
E02005075,RXY,General & Acute,0,0,ME169PH,51.273212,0.485699
E02005075,RXY,Mental Illness,387.956522,441.358696,ME169PH,51.273212,0.485699
E02005256,RXN,Learning Disabilities,0,0,PR29HT,53.791521,-2.706842
E02005256,RXN,General & Acute,561.836957,721.945652,PR29HT,53.791521,-2.706842
E02005256,RXN,Mental Illness,0,0,PR29HT,53.791521,-2.706842
E02005256,RXN,Maternity,33.434783,62,PR29HT,53.791521,-2.706842
E02005294,RW5,Learning Disabilities,0,0,PR56AW,53.719431,-2.63894
E02005294,RW5,General & Acute,0,0,PR56AW,53.719431,-2.63894
E02005294,RW5,Mental Illness,502.119565,552.021739,PR56AW,53.719431,-2.63894
E02005294,RW5,Maternity,0,0,PR56AW,53.719431,-2.63894
E02005444,RP7,Maternity,0,0,LN11FS,53.244029,-0.556905
E02005444,RP7,Learning Disabilities,0,0,LN11FS,53.244029,-0.556905
E02005444,RP7,General & Acute,0,0,LN11FS,53.244029,-0.556905
E02005444,RP7,Mental Illness,149.586957,185.554348,LN11FS,53.244029,-0.556905
E02005444,RWD,Learning Disabilities,0,0,LN25QY,53.233575,-0.519635
E02005444,RWD,General & Acute,810.73913,1046.021739,LN25QY,53.233575,-0.519635
E02005444,RWD,Mental Illness,0,0,LN25QY,53.233575,-0.519635
E02005444,RWD,Maternity,108.956522,163.108696,LN25QY,53.233575,-0.519635
E02005447,RY5,Learning Disabilities,0,0,LN57JH,53.226467,-0.52415
E02005447,RY5,General & Acute,19.282609,22.652174,LN57JH,53.226467,-0.52415
E02005447,RY5,Mental Illness,0,0,LN57JH,53.226467,-0.52415
E02005447,RY5,Maternity,0,0,LN57JH,53.226467,-0.52415
E02005548,RGP,Learning Disabilities,0,0,NR316LA,52.561672,1.71798
E02005548,RGP,General & Acute,337.804348,436,NR316LA,52.561672,1.71798
E02005548,RGP,Mental Illness,0,0,NR316LA,52.561672,1.71798
E02005548,RGP,Maternity,17.630435,38,NR316LA,52.561672,1.71798
E02005560,RCX,Learning Disabilities,0,0,PE304ET,52.75663,0.446694
E02005560,RCX,General & Acute,420,472.25,PE304ET,52.75663,0.446694
E02005560,RCX,Mental Illness,0,0,PE304ET,52.75663,0.446694
E02005560,RCX,Maternity,14.630435,23.76087,PE304ET,52.75663,0.446694
E02005589,RY3,Learning Disabilities,0,2.402174,NR23TU,52.633947,1.262489
E02005589,RY3,General & Acute,61.826087,70.402174,NR23TU,52.633947,1.262489
E02005589,RY3,Mental Illness,0,0,NR23TU,52.633947,1.262489
E02005589,RY3,Maternity,0,0,NR23TU,52.633947,1.262489
E02005596,RMY,Learning Disabilities,1.413043,5,NR12DH,52.615176,1.307646
E02005596,RMY,General & Acute,0,0,NR12DH,52.615176,1.307646
E02005596,RMY,Mental Illness,359.75,423.934783,NR12DH,52.615176,1.307646
E02005596,RMY,Maternity,0,0,NR12DH,52.615176,1.307646
E02005598,RM1,Learning Disabilities,0,0,NR47UY,52.617567,1.221195
E02005598,RM1,General & Acute,805.98913,896.304348,NR47UY,52.617567,1.221195
E02005598,RM1,Mental Illness,0,0,NR47UY,52.617567,1.221195
E02005598,RM1,Maternity,28.967391,88.173913,NR47UY,52.617567,1.221195
E02005645,RNQ,Maternity,27,49,NN168UZ,52.402783,-0.741293
E02005645,RNQ,Learning Disabilities,0,0,NN168UZ,52.402783,-0.741293
E02005645,RNQ,General & Acute,450.391304,503,NN168UZ,52.402783,-0.741293
E02005645,RNQ,Mental Illness,0,0,NN168UZ,52.402783,-0.741293
E02005647,RP1,Maternity,0,0,NN157PW,52.3941,-0.7222
E02005647,RP1,Learning Disabilities,0,0,NN157PW,52.3941,-0.7222
E02005647,RP1,General & Acute,85.173913,137,NN157PW,52.3941,-0.7222
E02005647,RP1,Mental Illness,187.565217,206.391304,NN157PW,52.3941,-0.7222
E02005674,RNS,Maternity,29.945652,70.76087,NN15BD,52.236068,-0.883829
E02005674,RNS,Learning Disabilities,0,0,NN15BD,52.236068,-0.883829
E02005674,RNS,General & Acute,506.804348,660.706522,NN15BD,52.236068,-0.883829
E02005674,RNS,Mental Illness,0,0,NN15BD,52.236068,-0.883829
E02005773,RCD,Learning Disabilities,0,0,HG27SX,53.993807,-1.517573
E02005773,RCD,General & Acute,206.032609,260.521739,HG27SX,53.993807,-1.517573
E02005773,RCD,Mental Illness,0,0,HG27SX,53.993807,-1.517573
E02005773,RCD,Maternity,10.445652,28,HG27SX,53.993807,-1.517573
E02005822,RK5,Maternity,25.086957,48,NG174JL,53.134573,-1.233579
E02005822,RK5,Learning Disabilities,0,0,NG174JL,53.134573,-1.233579
E02005822,RK5,General & Acute,446.826087,562.402174,NG174JL,53.134573,-1.233579
E02005822,RK5,Mental Illness,0,0,NG174JL,53.134573,-1.233579
E02005945,RTH,Maternity,72.902174,80,OX39DU,51.763867,-1.219773
E02005945,RTH,Learning Disabilities,0,0,OX39DU,51.763867,-1.219773
E02005945,RTH,General & Acute,808.369565,913.663043,OX39DU,51.763867,-1.219773
E02005945,RTH,Mental Illness,0,0,OX39DU,51.763867,-1.219773
E02005949,RNU,Maternity,0,0,OX37JX,51.750841,-1.22232
E02005949,RNU,General & Acute,117.206522,130.608696,OX37JX,51.750841,-1.22232
E02005949,RNU,Learning Disabilities,8.358696,9,OX37JX,51.750841,-1.22232
E02005949,RNU,Mental Illness,248.152174,300,OX37JX,51.750841,-1.22232
E02006023,RL1,Maternity,0,0,SY107AG,52.884212,-3.032685
E02006023,RL1,Learning Disabilities,0,0,SY107AG,52.884212,-3.032685
E02006023,RL1,General & Acute,95.782609,133.347826,SY107AG,52.884212,-3.032685
E02006023,RL1,Mental Illness,0,0,SY107AG,52.884212,-3.032685
E02006034,RXW,Learning Disabilities,0,0,SY38XQ,52.709274,-2.793689
E02006034,RXW,General & Acute,574.5,717.413043,SY38XQ,52.709274,-2.793689
E02006034,RXW,Mental Illness,0,0,SY38XQ,52.709274,-2.793689
E02006034,RXW,Maternity,19.826087,37,SY38XQ,52.709274,-2.793689
E02006088,RA4,Maternity,8.076087,16,BA214AT,50.944843,-2.634712
E02006088,RA4,General & Acute,273.271739,293.880435,BA214AT,50.944843,-2.634712
E02006088,RA4,Learning Disabilities,0,0,BA214AT,50.944843,-2.634712
E02006088,RA4,Mental Illness,0,0,BA214AT,50.944843,-2.634712
E02006109,RH5,Maternity,20.195652,36,TA15DA,51.011569,-3.121702
E02006109,RH5,General & Acute,628.358696,769.934783,TA15DA,51.011569,-3.121702
E02006109,RH5,Learning Disabilities,0,0,TA15DA,51.011569,-3.121702
E02006109,RH5,Mental Illness,101.913043,135,TA15DA,51.011569,-3.121702
E02006196,RRE,Learning Disabilities,12,12,ST163SR,52.810605,-2.109085
E02006196,RRE,General & Acute,110.543478,162,ST163SR,52.810605,-2.109085
E02006196,RRE,Mental Illness,242.630435,282.173913,ST163SR,52.810605,-2.109085
E02006196,RRE,Maternity,0,0,ST163SR,52.810605,-2.109085
E02006281,RGR,Learning Disabilities,0,0,IP332QZ,52.231662,0.709176
E02006281,RGR,General & Acute,335.891304,423.369565,IP332QZ,52.231662,0.709176
E02006281,RGR,Mental Illness,0,0,IP332QZ,52.231662,0.709176
E02006281,RGR,Maternity,9.836957,43.228261,IP332QZ,52.231662,0.709176
E02006355,RA2,Maternity,16.228261,50,GU27XX,51.241016,-0.607463
E02006355,RA2,General & Acute,319.347826,409.271739,GU27XX,51.241016,-0.607463
E02006355,RA2,Learning Disabilities,0,0,GU27XX,51.241016,-0.607463
E02006355,RA2,Mental Illness,0,0,GU27XX,51.241016,-0.607463
E02006364,RXX,Maternity,0,0,KT227AD,51.297591,-0.335629
E02006364,RXX,Learning Disabilities,2,7,KT227AD,51.297591,-0.335629
E02006364,RXX,General & Acute,0,0,KT227AD,51.297591,-0.335629
E02006364,RXX,Mental Illness,148.967391,169.619565,KT227AD,51.297591,-0.335629
E02006388,RTP,Maternity,24.771739,33.684783,RH15RH,51.219194,-0.162009
E02006388,RTP,Learning Disabilities,0,0,RH15RH,51.219194,-0.162009
E02006388,RTP,General & Acute,543.891304,618.141304,RH15RH,51.219194,-0.162009
E02006388,RTP,Mental Illness,0.01087,0.032609,RH15RH,51.219194,-0.162009
E02006400,RTK,Maternity,26.130435,54.347826,KT160PZ,51.377832,-0.52706
E02006400,RTK,Learning Disabilities,0,0,KT160PZ,51.377832,-0.52706
E02006400,RTK,General & Acute,401.554348,436.619565,KT160PZ,51.377832,-0.52706
E02006400,RTK,Mental Illness,0,0,KT160PZ,51.377832,-0.52706
E02006425,RDU,Maternity,58.630435,77.336957,GU167UJ,51.319666,-0.742029
E02006425,RDU,General & Acute,979.445652,1141.706522,GU167UJ,51.319666,-0.742029
E02006425,RDU,Learning Disabilities,0,0,GU167UJ,51.319666,-0.742029
E02006425,RDU,Mental Illness,0,0,GU167UJ,51.319666,-0.742029
E02006482,RLT,Maternity,13.445652,13.652174,CV107DJ,52.51258,-1.478439
E02006482,RLT,Learning Disabilities,0,0,CV107DJ,52.51258,-1.478439
E02006482,RLT,General & Acute,235.945652,324,CV107DJ,52.51258,-1.478439
E02006482,RLT,Mental Illness,0,0,CV107DJ,52.51258,-1.478439
E02006529,RJC,Maternity,30.586957,40,CV345BW,52.289965,-1.583203
E02006529,RJC,Learning Disabilities,0,0,CV345BW,52.289965,-1.583203
E02006529,RJC,General & Acute,318.51087,447.304348,CV345BW,52.289965,-1.583203
E02006529,RJC,Mental Illness,0,0,CV345BW,52.289965,-1.583203
E02006604,RPC,Maternity,0,0,RH193DZ,51.135073,-0.0029
E02006604,RPC,Learning Disabilities,0,0,RH193DZ,51.135073,-0.0029
E02006604,RPC,General & Acute,32.391304,52.130435,RH193DZ,51.135073,-0.0029
E02006604,RPC,Mental Illness,0,0,RH193DZ,51.135073,-0.0029
E02006621,RX2,Maternity,0,0,BN133EP,50.84121,-0.411162
E02006621,RX2,Learning Disabilities,6.652174,10,BN133EP,50.84121,-0.411162
E02006621,RX2,General & Acute,0,0,BN133EP,50.84121,-0.411162
E02006621,RX2,Mental Illness,530.478261,568,BN133EP,50.84121,-0.411162
E02006631,RYR,Maternity,24,59.347826,BN112DH,50.816691,-0.363429
E02006631,RYR,Learning Disabilities,0,0,BN112DH,50.816691,-0.363429
E02006631,RYR,General & Acute,763.271739,845.402174,BN112DH,50.816691,-0.363429
E02006631,RYR,Mental Illness,0,0,BN112DH,50.816691,-0.363429
E02006672,RNZ,Maternity,16.945652,24,SP28BJ,51.043946,-1.789823
E02006672,RNZ,General & Acute,373.054348,403,SP28BJ,51.043946,-1.789823
E02006672,RNZ,Learning Disabilities,0,0,SP28BJ,51.043946,-1.789823
E02006672,RNZ,Mental Illness,0,0,SP28BJ,51.043946,-1.789823
E02006741,R1A,Maternity,0,0,WR51JR,52.192339,-2.178135
E02006741,R1A,Learning Disabilities,0,0,WR51JR,52.192339,-2.178135
E02006741,R1A,General & Acute,26.695652,30.26087,WR51JR,52.192339,-2.178135
E02006741,R1A,Mental Illness,133.815217,153.684783,WR51JR,52.192339,-2.178135
E02006743,RWP,Learning Disabilities,0,0,WR51DD,52.191193,-2.181158
E02006743,RWP,General & Acute,567.815217,740,WR51DD,52.191193,-2.181158
E02006743,RWP,Mental Illness,0,0,WR51DD,52.191193,-2.181158
E02006743,RWP,Maternity,36.978261,62,WR51DD,52.191193,-2.181158
E02006793,RAP,Maternity,36.01087,36.815217,N181QX,51.613094,-0.07375
E02006793,RAP,General & Acute,369.793478,369.793478,N181QX,51.613094,-0.07375
E02006793,RAP,Learning Disabilities,0,0,N181QX,51.613094,-0.07375
E02006793,RAP,Mental Illness,0,0,N181QX,51.613094,-0.07375
E02006801,RJ1,Maternity,39.293478,98,SE17EH,51.497959,-0.118905
E02006801,RJ1,General & Acute,737.684783,1060.086957,SE17EH,51.497959,-0.118905
E02006801,RJ1,Learning Disabilities,0,0,SE17EH,51.497959,-0.118905
E02006801,RJ1,Mental Illness,0,0,SE17EH,51.497959,-0.118905
E02006850,RWE,Learning Disabilities,0,0,LE15WW,52.6268,-1.135953
E02006850,RWE,General & Acute,"1,294",1578.163043,LE15WW,52.6268,-1.135953
E02006850,RWE,Mental Illness,0,0,LE15WW,52.6268,-1.135953
E02006850,RWE,Maternity,67.956522,124,LE15WW,52.6268,-1.135953
E02006945,RCF,Learning Disabilities,0,0,BD206TD,53.898015,-1.962695
E02006945,RCF,General & Acute,230.891304,339.630435,BD206TD,53.898015,-1.962695
E02006945,RCF,Mental Illness,0,0,BD206TD,53.898015,-1.962695
E02006945,RCF,Maternity,11.98913,35,BD206TD,53.898015,-1.962695
E02007006,RBD,Maternity,9.043478,32,DT12JY,50.71294,-2.446936
E02007006,RBD,General & Acute,229.304348,272.586957,DT12JY,50.71294,-2.446936
E02007006,RBD,Learning Disabilities,0,0,DT12JY,50.71294,-2.446936
E02007006,RBD,Mental Illness,0,0,DT12JY,50.71294,-2.446936
E02007009,RJ2,Maternity,71.869565,94,SE136LH,51.453022,-0.017916
E02007009,RJ2,General & Acute,730.26087,799.108696,SE136LH,51.453022,-0.017916
E02007009,RJ2,Learning Disabilities,0,0,SE136LH,51.453022,-0.017916
E02007009,RJ2,Mental Illness,0,0,SE136LH,51.453022,-0.017916
E02007030,RBT,Learning Disabilities,0,0,CW14QJ,53.117685,-2.475863
E02007030,RBT,General & Acute,430.98913,573,CW14QJ,53.117685,-2.475863
E02007030,RBT,Mental Illness,0,0,CW14QJ,53.117685,-2.475863
E02007030,RBT,Maternity,18.858696,36,CW14QJ,53.117685,-2.475863
E02007057,RDE,Learning Disabilities,0,0,CO45JL,51.910164,0.899182
E02007057,RDE,General & Acute,941.858696,1107.184783,CO45JL,51.910164,0.899182
E02007057,RDE,Mental Illness,0,0,CO45JL,51.910164,0.899182
E02007057,RDE,Maternity,33.630435,64.021739,CO45JL,51.910164,0.899182
E02007058,RXP,Learning Disabilities,0,0,DL36HX,54.530374,-1.563733
E02007058,RXP,General & Acute,666,859.228261,DL36HX,54.530374,-1.563733
E02007058,RXP,Mental Illness,0,0,DL36HX,54.530374,-1.563733
E02007058,RXP,Maternity,29,46.032609,DL36HX,54.530374,-1.563733
