Code,Name,Primary Role Name,Postcode,Is Operated By - Code,latitude,longitude,msoa
RATAP,Barking Hospital,NHS TRUST SITE,IG119LX,RAT,51.538564,0.098727,E02000012
RQY05,Barnes Hospital,NHS TRUST SITE,SW148SU,RQY,51.467092,-0.256518,E02000786
RAL26,Barnet Hospital,NHS TRUST SITE,EN53DJ,RAL,51.650726,-0.214152,E02000027
T5J5E,Barts Hospital At Home,NHS TRUST SITE,E11FR,R1H,51.518702,-0.060138,E02000880
E9G8N,Barts Vaccine Centre Hospital,NHS TRUST SITE,E20HL,R1H,51.526438,-0.053739,E02000874
RJ252,Blackheath Hospital,NHS TRUST SITE,SE39UD,RJ2,51.463474,0.006265,E02000661
RPGCR,Bridgeways Day Hospital,NHS TRUST SITE,BR28JA,RPG,51.387666,0.042616,E02000152
RHQCR,Bupa Cromwell Hospital,NHS TRUST SITE,SW50TU,RHQ,51.495107,-0.191361,E02000589
RKL48,Cassel Hospital,NHS TRUST SITE,TW107JF,RKL,51.432912,-0.3081,E02000795
R1K02,Central Middlesex Hospital,NHS TRUST SITE,NW107NS,R1K,51.530936,-0.269161,E02000119
RYJ81,Charing Cross Hospital,NHS TRUST SITE,W68RF,RYJ,51.487045,-0.219935,E02000387
RRP02,Chase Farm Hospital,NHS TRUST SITE,EN28JL,RRP,51.666528,-0.104009,E02000286
RQM06,Chelsea & Westminster Hospital,NHS TRUST SITE,SW109NH,RQM,51.484308,-0.181644,E02000596
RPA85,Chelsfield Park Hospital,NHS TRUST SITE,BR67RG,RPA,51.358468,0.130847,E02000163
R1HK2,Chingford Hospital,NHS TRUST SITE,E46UN,R1H,51.620089,-0.00105,E02000898
R1K68,Clayponds Hospital,NHS TRUST SITE,W54RN,R1K,51.495087,-0.298884,E02000276
O5V4D,Clementine Churchill Hospital,NHS TRUST SITE,HA13RX,RQM,51.564966,-0.332709,E02000461
RGDTL,Cygnet Hospital Beckton,NHS TRUST SITE,E66ZB,RGD,51.513472,0.0649,E02000746
L4S0G,Cygnet Hospital Harrow,NHS TRUST SITE,HA13JL,RXX,51.567091,-0.337984,E02000461
R1KCH,Ealing Hospital Child Health,NHS TRUST SITE,W55TL,R1K,51.511661,-0.312555,E02000269
RWKAX,East Ham Memorial Hospital,NHS TRUST SITE,E78QR,RWK,51.539588,0.04536,E02000723
RXH44,Eastman Dental Hospital,NHS TRUST SITE,WC1X8LD,RXH,51.525832,-0.117036,E02007115
RRP01,Edgware Hospital,NHS TRUST SITE,HA80AD,RRP,51.606478,-0.271248,E02000047
RN7ED,Erith & District Hospital,NHS TRUST SITE,DA83EE,RN7,51.477113,0.166643,E02000069
RRP27,Finchley Memorial Hospital,NHS TRUST SITE,N120JE,RRP,51.60546,-0.176595,E02000050
RWKCA,"First Ave, Day Hospital",NHS TRUST SITE,E138AP,RWK,51.526383,0.021701,E02000739
RATGM,Goodmayes Hospital,NHS TRUST SITE,IG38XJ,RAT,51.577993,0.110488,E02000772
RATGD,Grays Court Community Hospital,NHS TRUST SITE,RM109SR,RAT,51.538977,0.157336,E02000015
RP401,Great Ormond Street Hospital Central London Site,NHS TRUST SITE,WC1N3JH,RP4,51.52221,-0.119924,E02000192
A7D0H,Gstt @ Cleveland Clinic London Hospital,NHS TRUST SITE,SW1X7HY,RJ1,51.499263,-0.14892,E02000978
X2X7Z,Gstt @ Eltham Community Hospital,NHS TRUST SITE,SE95DQ,RJ1,51.449946,0.053714,E02000340
Y7V9O,Gstt @ West Valley Hospital,NHS TRUST SITE,CR02RD,RJ1,51.379541,-0.101436,E02000213
RKL35,Gunnersbury Day Hospital,NHS TRUST SITE,W30DF,RKL,51.521352,-0.265589,E02000252
RJ100,Guys And St. Thomas Hospitals,NHS TRUST SITE,SE19RT,RJ1,51.503331,-0.086771,E02000812
RYJ85,Gynaecology And Fertility Queen Charlottes Hospital,NHS TRUST SITE,W120HS,RYJ,51.51742,-0.234721,E02000372
RAL80,Hadley Wood Hospital,NHS TRUST SITE,EN55TS,RAL,51.654137,-0.198828,E02000024
A6E0E,Harefield Hospital,NHS TRUST SITE,UB96JH,RJ1,51.606732,-0.482747,E02000496
RQY06,Henderson Hospital,NHS TRUST SITE,SM25LT,RQY,51.349828,-0.198763,E02006836
RF4HG,Highgate Private Hospital,NHS TRUST SITE,N64DJ,RF4,51.577167,-0.155888,E02000426
RV3AN,Hillingdon Hospital,NHS TRUST SITE,UB83NN,RV3,51.526077,-0.461175,E02000510
RQXM1,Homerton University Hospital,NHS TRUST SITE,E96SR,RQX,51.550634,-0.046099,E02000363
RRVRH,Hospital For Tropical Diseases,NHS TRUST SITE,WC1E6JD,RRV,51.523158,-0.13541,E02000191
V1Z2W,Hospital Of St. John And St. Elizabeth,NHS TRUST SITE,NW89NH,RYX,51.533473,-0.175461,E02000960
Z4O9E,King Edward V11 Hospital,NHS TRUST SITE,W1G6AA,RQM,51.520778,-0.150325,E02000970
RP413,King George Hospital,NHS TRUST SITE,IG38XG,RP4,51.571265,0.111547,E02000772
RJZ01,Kings College Hospital,NHS TRUST SITE,SE59RS,RJZ,51.468077,-0.093916,E02000631
RRV88,London Independent Hospital,NHS TRUST SITE,E14NL,RRV,51.520402,-0.046744,E02000879
RPGAG,Memorial Hospital,NHS TRUST SITE,SE183RG,RPG,51.468576,0.064111,E02000332
RWK28,Mile End Hospital,NHS TRUST SITE,E14DG,RWK,51.525048,-0.042206,E02000873
RP608,Moorfields Eye Centre At Croydon University Hospital,NHS TRUST SITE,CR77YE,RP6,51.389128,-0.108758,E02000208
RP610,Moorfields Eye Centre At Ealing Hospital,NHS TRUST SITE,UB13HW,RP6,51.507606,-0.345495,E02000266
RP606,Moorfields Eye Centre At Northwick Park Hospital,NHS TRUST SITE,HA13UJ,RP6,51.575407,-0.322037,E02000100
RP604,Moorfields Eye Centre At St. Georges Hospital,NHS TRUST SITE,SW170QT,RP6,51.426682,-0.175694,E02000956
RP601,Moorfields Eye Hospital,NHS TRUST SITE,EC1V2PD,RP6,51.527246,-0.089889,E02000576
RATDP,Morland Road Day Hospital,NHS TRUST SITE,RM109HU,RAT,51.535187,0.152111,E02000021
RWG01,Mount Vernon Hospital,NHS TRUST SITE,HA62RN,RWG,51.614923,-0.445823,E02000494
RRVNQ,National Hospital For Neurology & Neurosurgery,NHS TRUST SITE,WC1N3BG,RRV,51.522171,-0.122001,E02000193
RQY42,Nelson Hospital,NHS TRUST SITE,SW208DA,RQY,51.40983,-0.2102,E02000699
RAX58,New Victoria Hospital,NHS TRUST SITE,KT27EG,RAX,51.415694,-0.254289,E02000599
R1HNH,Newham General Hospital,NHS TRUST SITE,E138SL,R1H,51.522776,0.034717,E02000741
R1H0A,Nhs Nightingale Hospital London,NHS TRUST SITE,E161XL,R1H,51.508134,0.028646,E02000749
RRP36,North Middlesex Hospital,NHS TRUST SITE,N181QX,RRP,51.613094,-0.07375,E02006793
RAJ1W,Old Church Hospital,NHS TRUST SITE,RM79BH,RAJ,51.574857,0.177911,E02000476
RQY54,Old Hospital Close,NHS TRUST SITE,SW128SR,RQY,51.442821,-0.163449,E02000951
RJ130,Orpington Hospital,NHS TRUST SITE,BR69JU,RJ1,51.362502,0.09515,E02000161
RAX59,Parkside Hospital,NHS TRUST SITE,SW195NX,RAX,51.435762,-0.223584,E02000690
RKL34,Penny Sangham Day Hospital,NHS TRUST SITE,UB24EU,RKL,51.503043,-0.379996,E02000275
RJ132,Princess Royal University Hospital,NHS TRUST SITE,BR68ND,RJ1,51.366243,0.059146,E02000162
RF4PH,Private Hospitals,NHS TRUST SITE,RM30PU,RF4,51.591379,0.233133,E02000470
Z3M8V,Purley Hospital,NHS TRUST SITE,CR82YL,RJ6,51.34074,-0.114466,E02000230
RJ231,Queen Elizabeth Hospital,NHS TRUST SITE,SE184QH,RJ2,51.478193,0.050043,E02000327
RJ230,Queen Marys Hospital,NHS TRUST SITE,DA146LT,RJ2,51.419041,0.101687,E02000091
RVRA2,"Queen Marys Hospital, Roehampton",NHS TRUST SITE,SW155PN,RVR,51.45555,-0.241729,E02000938
RATQH,Queens Hospital,NHS TRUST SITE,RM70AG,RAT,51.568647,0.179031,E02000480
RAX60,Ravenscourt Park Hospital,NHS TRUST SITE,W60TN,RAX,51.496407,-0.241454,E02000379
RDERD,Roding Hospital,NHS TRUST SITE,IG45PZ,RDE,51.587154,0.043064,E02006925
RV3A3,Roundwood Day Hospital,NHS TRUST SITE,NW102HH,RV3,51.544717,-0.236838,E02000116
RV355,Roxbourne Hospital,NHS TRUST SITE,HA20UE,RV3,51.56732,-0.363104,E02000460
A5Q7N,Royal Brompton Hospital,NHS TRUST SITE,SW36NP,RJ1,51.489743,-0.170855,E02000595
RP420,Royal Free Hospital,NHS TRUST SITE,NW32QG,RP4,51.553224,-0.165324,E02000173
RVRD9,Royal Marsden Hospital,NHS TRUST SITE,SM25PT,RVR,51.343477,-0.191089,E02000861
RRVP5,Royal National Ent And Eastman Dental Hospitals,NHS TRUST SITE,WC1E6DG,RRV,51.521683,-0.133542,E02000191
RAN02,Royal National Orthopaedic Hospital,NHS TRUST SITE,W1W5AQ,RAN,51.52331,-0.143289,E02000972
RAL16,"Royal National Throat, Nose & Ear Hospital",NHS TRUST SITE,WC1X8DA,RAL,51.529203,-0.119189,E02007115
RYJ06,Samaritan Hospital For Women,NHS TRUST SITE,NW15JD,RYJ,51.522838,-0.151539,E02000970
N8M6D,Schoen Hospital London,NHS TRUST SITE,W1U2SB,R1L,51.516582,-0.150005,E02000970
RVRJ5,Shirley Oaks Hospital,NHS TRUST SITE,CR98AB,RVR,51.382299,-0.056352,E02000211
RQY01,Springfield University Hospital,NHS TRUST SITE,SW177DJ,RQY,51.437358,-0.172348,E02000949
RAX61,St. Anthonys Hospital,NHS TRUST SITE,SM39DW,RAX,51.37992,-0.220794,E02000847
RQX42,St. Bartholomews Hospital,NHS TRUST SITE,EC1A9DS,RQX,51.518602,-0.100127,E02000001
RV320,St. Charles Hospital,NHS TRUST SITE,W106DZ,RV3,51.522362,-0.217218,E02000578
RQX43,St. Clements Hospital,NHS TRUST SITE,E16LP,RQX,51.516339,-0.072273,E02000878
U1K7X,St. Georges University Hospitals Nhs Ft Clinical Research Facility,NHS TRUST SITE,SW170RE,RJ7,51.427798,-0.175228,E02000956
RVR05,St. Helier Hospital,NHS TRUST SITE,SM51AA,RVR,51.380188,-0.183708,E02000841
RV3CP,St. Marys Hospital,NHS TRUST SITE,W21NY,RV3,51.516969,-0.173569,E02000974
RALC8,St. Michaels Hospital,NHS TRUST SITE,EN20JB,RAL,51.662127,-0.084383,E02000284
RV3DY,St. Pancras Hospital,NHS TRUST SITE,NW10PE,RV3,51.53665,-0.131658,E02000184
RJ122,St. Thomas Hospital,NHS TRUST SITE,SE17EH,RJ1,51.497959,-0.118905,E02006801
RP405,St.. Bartholomews Hospital,NHS TRUST SITE,EC1A7BE,RP4,51.51775,-0.100404,E02000001
A3J3M,St..Anns Hospital,NHS TRUST SITE,N153TH,RKE,51.580625,-0.092097,E02000423
RQY46,Surbiton Hospital,NHS TRUST SITE,KT66EZ,RQY,51.390825,-0.299929,E02000610
RVR06,Sutton Hospital,NHS TRUST SITE,SM25NF,RVR,51.345455,-0.191069,E02000861
RQY78,Teddington Memorial Hospital,NHS TRUST SITE,TW110LR,RQY,51.425036,-0.340266,E02000804
RV346,The Gordon Hospital,NHS TRUST SITE,SW1V2RH,RV3,51.492338,-0.135789,E02000980
A2K4Z,The Italian Hospital,NHS TRUST SITE,WC1N3AJ,RP4,51.520916,-0.121664,E02000193
RF4TK,The Kings Oak Private Hospital,NHS TRUST SITE,EN28SD,RF4,51.667899,-0.105568,E02000286
R1H83,The London Chest Hospital,NHS TRUST SITE,E29JX,R1H,51.532184,-0.049499,E02000865
RP415,The Royal London Hospital,NHS TRUST SITE,E11BB,RP4,51.519019,-0.058106,E02000880
RRV60,The Royal London Hospital For Integrated Medicine,NHS TRUST SITE,WC1N3HR,RRV,51.521739,-0.121399,E02000193
RPY03,The Royal Marsden Hospital,NHS TRUST SITE,KT27QB,RPY,51.414826,-0.282601,E02000600
RPY01,The Royal Marsden Hospital,NHS TRUST SITE,SW36JJ,RPY,51.490561,-0.172565,E02000595
RAN01,The Royal National Orthopaedic Hospital,NHS TRUST SITE,HA74LP,RAN,51.632566,-0.310435,E02000433
RPA84,The Sloane Hospital,NHS TRUST SITE,BR35HS,RPA,51.408332,-0.00436,E02000138
RKEQ4,The Whittington Hospital,NHS TRUST SITE,N195NF,RKE,51.566482,-0.139066,E02000557
RKEHC,The Whittington Hospital At Hornsey Central,NHS TRUST SITE,N88JD,RKE,51.583422,-0.131013,E02000418
RKENH,The Whittington Hospital At Northern Health Centre,NHS TRUST SITE,N76LB,RKE,51.560939,-0.123596,E02000560
RAX08,Tolworth Hospital,NHS TRUST SITE,KT67QU,RAX,51.379085,-0.288494,E02000614
RRVEW,Uclh Outreach: Bmi Bishops Wood Hospital,NHS TRUST SITE,HA62JW,RRV,51.616452,-0.446521,E02000494
RRVTG,Uclh Outreach: Bmi The Garden Hospital,NHS TRUST SITE,NW41RP,RRV,51.593715,-0.224578,E02000055
RRV82,Uclh Outreach: London Bridge Hospital,NHS TRUST SITE,SE12PR,RRV,51.506327,-0.085893,E02006941
RRV81,Uclh Outreach: Portland Hospital,NHS TRUST SITE,W1W5AH,RRV,51.523185,-0.14435,E02000970
RRV80,Uclh Outreach: The Lister Hospital,NHS TRUST SITE,SW1W8RH,RRV,51.486519,-0.150502,E02000982
RRV92,Uclh Outreach: The Princess Grace Hospital,NHS TRUST SITE,W1U5NY,RRV,51.522365,-0.152928,E02000970
RRV03,University College Hospital,NHS TRUST SITE,NW12BU,RRV,51.524891,-0.136911,E02000191
C4M4J,University College Hospital Grafton Way Building,NHS TRUST SITE,WC1E6AS,RRV,51.524893,-0.136885,E02000191
B7E1O,University College London Hospitals,NHS TRUST SITE,WC1E6EB,RRV,51.521522,-0.131314,E02000191
RRV00,University College London Hospitals Nhs Foundation Trust,NHS TRUST SITE,NW12PG,RRV,51.525735,-0.137409,E02000186
O3W6H,University College London Hospitals Nhs Ft,NHS TRUST SITE,W1T7HA,RRV,51.522693,-0.136009,E02000191
RJ224,University Hospital Lewisham,NHS TRUST SITE,SE136LH,RJ2,51.453022,-0.017916,E02007009
RPGDJ,Upton Day Hospital,NHS TRUST SITE,DA68LQ,RPG,51.457124,0.131681,E02000084
RF4VH,Victoria Hospital,NHS TRUST SITE,RM14HL,RF4,51.583657,0.187311,E02000476
R1HKJ,Wanstead Hospital,NHS TRUST SITE,E111UU,R1H,51.583704,0.027334,E02000764
RAL24,Wellington Hospital,NHS TRUST SITE,NW89LE,RAL,51.531549,-0.171472,E02000962
RTK52,West Middlesex University Hospital,NHS TRUST SITE,TW76AF,RTK,51.473648,-0.324434,E02000539
RYJ07,Western Eye Hospital,NHS TRUST SITE,NW15QH,RYJ,51.520703,-0.16333,E02000971
G6K6F,Weymouth Street Hospital,NHS TRUST SITE,W1G6NP,RQM,51.520217,-0.150694,E02000970
RATAC,Whipps Cross Hospital,NHS TRUST SITE,E111NR,RAT,51.578831,0.002638,E02000913
RV315,Willesden Hospital,NHS TRUST SITE,NW103RY,RV3,51.542836,-0.235526,E02000116
RVRC7,Wilson Hospital,NHS TRUST SITE,CR44TP,RVR,51.397252,-0.163262,E02000710
